[{"OBJECT_NAME":"FLOCK 4BE-36","OBJECT_ID":"2024-149U","EPOCH":"2026-03-09T16:57:27.366336","MEAN_MOTION":15.3916719,"ECCENTRICITY":0.00029183,"INCLINATION":97.3778,"RA_OF_ASC_NODE":152.1823,"ARG_OF_PERICENTER":251.8087,"MEAN_ANOMALY":108.2841,"EPHEMERIS_TYPE":0,"CLASSIFICATION_TYPE":"U","NORAD_CAT_ID":60486,"ELEMENT_SET_NO":999,"REV_AT_EPOCH":8703,"BSTAR":0.00059802545,"MEAN_MOTION_DOT":0.00023179,"MEAN_MOTION_DDOT":0},{"OBJECT_NAME":"SL-3 R\/B","OBJECT_ID":"1983-003B","EPOCH":"2026-03-09T21:31:00.897888","MEAN_MOTION":15.34640469,"ECCENTRICITY":0.00285789,"INCLINATION":81.155,"RA_OF_ASC_NODE":261.9078,"ARG_OF_PERICENTER":155.4571,"MEAN_ANOMALY":204.8036,"EPHEMERIS_TYPE":0,"CLASSIFICATION_TYPE":"U","NORAD_CAT_ID":13771,"ELEMENT_SET_NO":999,"REV_AT_EPOCH":35642,"BSTAR":0.00033440366,"MEAN_MOTION_DOT":0.00011405,"MEAN_MOTION_DDOT":0}]
